STARLINK-2257           
1 47787U 21018A   26068.72604549 -.00001022  00000+0 -22395-4 0  9995
2 47787  53.1595 245.1686 0001224  89.9599 270.1542 15.30195877276690
TIANMU-1 07             
1 57399U 23101A   26065.57454230  .00008352  00000+0  29795-3 0  9991
2 57399  97.2728 118.5929 0004609 142.4105 217.7458 15.29118809145964
